{"type": "FeatureCollection", "features": [ {"type": "Feature", "properties": {"norad_id": 66619, "name": "STARLINK-35951", "group": "last-30-days", "lat": 48.66478343785078, "lon": -41.040675096185744, "alt_km": 382.9612100354834, "timestamp": "2025-12-10T14:53:35.947280+00:00", "meta": {"OBJECT_NAME": "STARLINK-35951", "OBJECT_ID": "2025-271C", "EPOCH": "2025-12-10T06:00:02.000160", "MEAN_MOTION": 15.60821675, "ECCENTRICITY": 0.00010562, "INCLINATION": 53.1599, "RA_OF_ASC_NODE": 199.2272, "ARG_OF_PERICENTER": 95.1738, "MEAN_ANOMALY": 92.9245, "EPHEMERIS_TYPE": 0, "CLASSIFICATION_TYPE": "U", "NORAD_CAT_ID": 66619, "ELEMENT_SET_NO": 999, "REV_AT_EPOCH": 384, "BSTAR": -0.027374718, "MEAN_MOTION_DOT": -0.02037142, "MEAN_MOTION_DDOT": 0}, "tle": {"line1": "1 66619U 25271C   25344.25002315 -.02037142  00000+0 -27375-1 0  9996", "line2": "2 66619  53.1599 199.2272 0001056  95.1738  92.9245 15.60821675  3846"}}, "geometry": {"type": "Point", "coordinates": [-41.040675096185744, 48.66478343785078]}}, {"type": "Feature", "properties": {"norad_id": 66620, "name": "STARLINK-35936", "group": "last-30-days", "lat": 50.78695672867156, "lon": -49.316886927906886, "alt_km": 382.5988421257616, "timestamp": "2025-12-10T14:53:35.947290+00:00", "meta": {"OBJECT_NAME": "STARLINK-35936", "OBJECT_ID": "2025-271D", "EPOCH": "2025-12-10T06:00:02.000160", "MEAN_MOTION": 15.60824359, "ECCENTRICITY": 0.0001126, "INCLINATION": 53.1597, "RA_OF_ASC_NODE": 199.2405, "ARG_OF_PERICENTER": 92.1186, "MEAN_ANOMALY": 90.2263, "EPHEMERIS_TYPE": 0, "CLASSIFICATION_TYPE": "U", "NORAD_CAT_ID": 66620, "ELEMENT_SET_NO": 999, "REV_AT_EPOCH": 384, "BSTAR": -0.027377561, "MEAN_MOTION_DOT": -0.02037565, "MEAN_MOTION_DDOT": 0}, "tle": {"line1": "1 66620U 25271D   25344.25002315 -.02037565  00000+0 -27378-1 0  9990", "line2": "2 66620  53.1597 199.2405 0001126  92.1186  90.2263 15.60824359  3849"}}, "geometry": {"type": "Point", "coordinates": [-49.316886927906886, 50.78695672867156]}}, {"type": "Feature", "properties": {"norad_id": 66621, "name": "STARLINK-35847", "group": "last-30-days", "lat": 16.296947014311492, "lon": 4.661451147939181, "alt_km": 388.38799329304766, "timestamp": "2025-12-10T14:53:35.947299+00:00", "meta": {"OBJECT_NAME": "STARLINK-35847", "OBJECT_ID": "2025-271E", "EPOCH": "2025-12-10T06:00:02.000160", "MEAN_MOTION": 15.60822601, "ECCENTRICITY": 0.00010542, "INCLINATION": 53.1597, "RA_OF_ASC_NODE": 199.1239, "ARG_OF_PERICENTER": 106.7786, "MEAN_ANOMALY": 130.5132, "EPHEMERIS_TYPE": 0, "CLASSIFICATION_TYPE": "U", "NORAD_CAT_ID": 66621, "ELEMENT_SET_NO": 999, "REV_AT_EPOCH": 384, "BSTAR": -0.027391139, "MEAN_MOTION_DOT": -0.02038272, "MEAN_MOTION_DDOT": 0}, "tle": {"line1": "1 66621U 25271E   25344.25002315 -.02038272  00000+0 -27391-1 0  9992", "line2": "2 66621  53.1597 199.1239 0001054 106.7786 130.5132 15.60822601  3843"}}, "geometry": {"type": "Point", "coordinates": [4.661451147939181, 16.296947014311492]}}, {"type": "Feature", "properties": {"norad_id": 66622, "name": "STARLINK-35950", "group": "last-30-days", "lat": 47.83131219355149, "lon": -38.44365241078542, "alt_km": 383.04280994228066, "timestamp": "2025-12-10T14:53:35.947307+00:00", "meta": {"OBJECT_NAME": "STARLINK-35950", "OBJECT_ID": "2025-271F", "EPOCH": "2025-12-10T06:00:02.000160", "MEAN_MOTION": 15.60821127, "ECCENTRICITY": 0.00011233, "INCLINATION": 53.16, "RA_OF_ASC_NODE": 199.2244, "ARG_OF_PERICENTER": 93.7922, "MEAN_ANOMALY": 96.2226, "EPHEMERIS_TYPE": 0, "CLASSIFICATION_TYPE": "U", "NORAD_CAT_ID": 66622, "ELEMENT_SET_NO": 999, "REV_AT_EPOCH": 384, "BSTAR": -0.027333951, "MEAN_MOTION_DOT": -0.02034504, "MEAN_MOTION_DDOT": 0}, "tle": {"line1": "1 66622U 25271F   25344.25002315 -.02034504  00000+0 -27334-1 0  9994", "line2": "2 66622  53.1600 199.2244 0001123  93.7922  96.2226 15.60821127  3844"}}, "geometry": {"type": "Point", "coordinates": [-38.44365241078542, 47.83131219355149]}}, {"type": "Feature", "properties": {"norad_id": 66623, "name": "STARLINK-35920", "group": "last-30-days", "lat": 45.998600182789225, "lon": -33.51031754437597, "alt_km": 383.2792630358699, "timestamp": "2025-12-10T14:53:35.947316+00:00", "meta": {"OBJECT_NAME": "STARLINK-35920", "OBJECT_ID": "2025-271G", "EPOCH": "2025-12-10T06:00:02.000160", "MEAN_MOTION": 15.60821318, "ECCENTRICITY": 0.00011911, "INCLINATION": 53.1601, "RA_OF_ASC_NODE": 199.2155, "ARG_OF_PERICENTER": 95.5623, "MEAN_ANOMALY": 98.2864, "EPHEMERIS_TYPE": 0, "CLASSIFICATION_TYPE": "U", "NORAD_CAT_ID": 66623, "ELEMENT_SET_NO": 999, "REV_AT_EPOCH": 384, "BSTAR": -0.027346172, "MEAN_MOTION_DOT": -0.02035362, "MEAN_MOTION_DDOT": 0}, "tle": {"line1": "1 66623U 25271G   25344.25002315 -.02035362  00000+0 -27346-1 0  9991", "line2": "2 66623  53.1601 199.2155 0001191  95.5623  98.2864 15.60821318  3842"}}, "geometry": {"type": "Point", "coordinates": [-33.51031754437597, 45.998600182789225]}}, {"type": "Feature", "properties": {"norad_id": 66624, "name": "STARLINK-35927", "group": "last-30-days", "lat": 46.94158850774482, "lon": -35.93472087121216, "alt_km": 383.2415146114208, "timestamp": "2025-12-10T14:53:35.947325+00:00", "meta": {"OBJECT_NAME": "STARLINK-35927", "OBJECT_ID": "2025-271H", "EPOCH": "2025-12-10T06:00:02.000160", "MEAN_MOTION": 15.60822564, "ECCENTRICITY": 0.00010438, "INCLINATION": 53.16, "RA_OF_ASC_NODE": 199.2202, "ARG_OF_PERICENTER": 91.4834, "MEAN_ANOMALY": 100.4469, "EPHEMERIS_TYPE": 0, "CLASSIFICATION_TYPE": "U", "NORAD_CAT_ID": 66624, "ELEMENT_SET_NO": 999, "REV_AT_EPOCH": 384, "BSTAR": -0.027354857, "MEAN_MOTION_DOT": -0.02035903, "MEAN_MOTION_DDOT": 0}, "tle": {"line1": "1 66624U 25271H   25344.25002315 -.02035903  00000+0 -27355-1 0  9993", "line2": "2 66624  53.1600 199.2202 0001043  91.4834 100.4469 15.60822564  3841"}}, "geometry": {"type": "Point", "coordinates": [-35.93472087121216, 46.94158850774482]}}, {"type": "Feature", "properties": {"norad_id": 66625, "name": "STARLINK-35929", "group": "last-30-days", "lat": 45.007131296694034, "lon": -31.172225723408882, "alt_km": 383.4362323898067, "timestamp": "2025-12-10T14:53:35.947334+00:00", "meta": {"OBJECT_NAME": "STARLINK-35929", "OBJECT_ID": "2025-271J", "EPOCH": "2025-12-10T06:00:02.000160", "MEAN_MOTION": 15.60822854, "ECCENTRICITY": 0.00011473, "INCLINATION": 53.1599, "RA_OF_ASC_NODE": 199.2115, "ARG_OF_PERICENTER": 103.6421, "MEAN_ANOMALY": 92.1221, "EPHEMERIS_TYPE": 0, "CLASSIFICATION_TYPE": "U", "NORAD_CAT_ID": 66625, "ELEMENT_SET_NO": 999, "REV_AT_EPOCH": 384, "BSTAR": -0.027383503, "MEAN_MOTION_DOT": -0.02037862, "MEAN_MOTION_DDOT": 0}, "tle": {"line1": "1 66625U 25271J   25344.25002315 -.02037862  00000+0 -27384-1 0  9992", "line2": "2 66625  53.1599 199.2115 0001147 103.6421  92.1221 15.60822854  3840"}}, "geometry": {"type": "Point", "coordinates": [-31.172225723408882, 45.007131296694034]}}, {"type": "Feature", "properties": {"norad_id": 66626, "name": "STARLINK-35902", "group": "last-30-days", "lat": 43.966597381379195, "lon": -28.908787460926042, "alt_km": 383.642547723186, "timestamp": "2025-12-10T14:53:35.947344+00:00", "meta": {"OBJECT_NAME": "STARLINK-35902", "OBJECT_ID": "2025-271K", "EPOCH": "2025-12-10T06:00:02.000160", "MEAN_MOTION": 15.60821937, "ECCENTRICITY": 0.00011291, "INCLINATION": 53.16, "RA_OF_ASC_NODE": 199.2077, "ARG_OF_PERICENTER": 96.8848, "MEAN_ANOMALY": 100.7991, "EPHEMERIS_TYPE": 0, "CLASSIFICATION_TYPE": "U", "NORAD_CAT_ID": 66626, "ELEMENT_SET_NO": 999, "REV_AT_EPOCH": 384, "BSTAR": -0.027380368, "MEAN_MOTION_DOT": -0.02037581, "MEAN_MOTION_DDOT": 0}, "tle": {"line1": "1 66626U 25271K   25344.25002315 -.02037581  00000+0 -27380-1 0  9997", "line2": "2 66626  53.1600 199.2077 0001129  96.8848 100.7991 15.60821937  3848"}}, "geometry": {"type": "Point", "coordinates": [-28.908787460926042, 43.966597381379195]}}, {"type": "Feature", "properties": {"norad_id": 66627, "name": "STARLINK-35904", "group": "last-30-days", "lat": 42.88497280938623, "lon": -26.72985063041022, "alt_km": 383.7840998839174, "timestamp": "2025-12-10T14:53:35.947354+00:00", "meta": {"OBJECT_NAME": "STARLINK-35904", "OBJECT_ID": "2025-271L", "EPOCH": "2025-12-10T06:00:02.000160", "MEAN_MOTION": 15.60821814, "ECCENTRICITY": 0.00011646, "INCLINATION": 53.1599, "RA_OF_ASC_NODE": 199.2037, "ARG_OF_PERICENTER": 98.1134, "MEAN_ANOMALY": 101.4852, "EPHEMERIS_TYPE": 0, "CLASSIFICATION_TYPE": "U", "NORAD_CAT_ID": 66627, "ELEMENT_SET_NO": 999, "REV_AT_EPOCH": 368, "BSTAR": -0.027344644, "MEAN_MOTION_DOT": -0.02035277, "MEAN_MOTION_DDOT": 0}, "tle": {"line1": "1 66627U 25271L   25344.25002315 -.02035277  00000+0 -27345-1 0  9999", "line2": "2 66627  53.1599 199.2037 0001164  98.1134 101.4852 15.60821814  3684"}}, "geometry": {"type": "Point", "coordinates": [-26.72985063041022, 42.88497280938623]}}, {"type": "Feature", "properties": {"norad_id": 66628, "name": "STARLINK-35862", "group": "last-30-days", "lat": 41.76329399916864, "lon": -24.628022183973105, "alt_km": 383.966205236924, "timestamp": "2025-12-10T14:53:35.947363+00:00", "meta": {"OBJECT_NAME": "STARLINK-35862", "OBJECT_ID": "2025-271M", "EPOCH": "2025-12-10T06:00:02.000160", "MEAN_MOTION": 15.60822003, "ECCENTRICITY": 0.00011404, "INCLINATION": 53.1596, "RA_OF_ASC_NODE": 199.1995, "ARG_OF_PERICENTER": 101.4687, "MEAN_ANOMALY": 100.0461, "EPHEMERIS_TYPE": 0, "CLASSIFICATION_TYPE": "U", "NORAD_CAT_ID": 66628, "ELEMENT_SET_NO": 999, "REV_AT_EPOCH": 384, "BSTAR": -0.027345255, "MEAN_MOTION_DOT": -0.02035312, "MEAN_MOTION_DDOT": 0}, "tle": {"line1": "1 66628U 25271M   25344.25002315 -.02035312  00000+0 -27345-1 0  9990", "line2": "2 66628  53.1596 199.1995 0001140 101.4687 100.0461 15.60822003  3849"}}, "geometry": {"type": "Point", "coordinates": [-24.628022183973105, 41.76329399916864]}}]}